start=new Date('2022-06-04T00:00:00.000Z').valueOf();
sats=[{"TLE_LINE1":"1 45673U 20035S   22154.42940315 -.00000347  00000-0 -43526-5 0  9998","FILE":"3479192","MEAN_ELEMENT_THEORY":"SGP4","REV_AT_EPOCH":"11145","ELEMENT_SET_NO":"999","PERIOD":"95.593","COUNTRY_CODE":"US","MEAN_ANOMALY":"303.4935","INCLINATION":"53.0550","TIME_SYSTEM":"UTC","ARG_OF_PERICENTER":"56.6247","EPOCH":"2022-06-03T10:18:20.432160","DECAY_DATE":null,"BSTAR":"-0.00000435260000","SITE":"AFETR","APOAPSIS":"548.627","OBJECT_NAME":"STARLINK-1456","EPHEMERIS_TYPE":"0","ECCENTRICITY":"0.00020140","CLASSIFICATION_TYPE":"U","GP_ID":"205261578","OBJECT_TYPE":"PAYLOAD","CENTER_NAME":"EARTH","NORAD_CAT_ID":"45673","REF_FRAME":"TEME","LAUNCH_DATE":"2020-06-04","RCS_SIZE":"LARGE","OBJECT_ID":"2020-035S","PERIAPSIS":"545.838","MEAN_MOTION_DDOT":"0.0000000000000","TLE_LINE2":"2 45673  53.0550 120.3876 0002014  56.6247 303.4935 15.06393776111455","RA_OF_ASC_NODE":"120.3876","MEAN_MOTION":"15.06393776","SEMIMAJOR_AXIS":"6925.368","MEAN_MOTION_DOT":"-0.00000347"},{"NORAD_CAT_ID":"45674","RCS_SIZE":"LARGE","LAUNCH_DATE":"2020-06-04","REF_FRAME":"TEME","RA_OF_ASC_NODE":"118.2805","MEAN_MOTION_DDOT":"0.0000000000000","TLE_LINE2":"2 45674  53.0543 118.2805 0001768  70.9064 289.2117 15.06392861111498","PERIAPSIS":"546.011","OBJECT_ID":"2020-035T","SEMIMAJOR_AXIS":"6925.370","MEAN_MOTION_DOT":"-0.00000527","MEAN_MOTION":"15.06392861","REV_AT_EPOCH":"11149","MEAN_ELEMENT_THEORY":"SGP4","TLE_LINE1":"1 45674U 20035T   22154.90119633 -.00000527  00000-0 -16509-4 0  9993","FILE":"3479630","INCLINATION":"53.0543","MEAN_ANOMALY":"289.2117","COUNTRY_CODE":"US","PERIOD":"95.593","ELEMENT_SET_NO":"999","ECCENTRICITY":"0.00017680","EPHEMERIS_TYPE":"0","OBJECT_NAME":"STARLINK-1457","SITE":"AFETR","DECAY_DATE":null,"BSTAR":"-0.00001650900000","APOAPSIS":"548.460","EPOCH":"2022-06-03T21:37:43.362912","ARG_OF_PERICENTER":"70.9064","TIME_SYSTEM":"UTC","CENTER_NAME":"EARTH","GP_ID":"205295390","OBJECT_TYPE":"PAYLOAD","CLASSIFICATION_TYPE":"U"},{"NORAD_CAT_ID":"45675","LAUNCH_DATE":"2020-06-04","RCS_SIZE":"LARGE","REF_FRAME":"TEME","MEAN_MOTION_DDOT":"0.0000000000000","TLE_LINE2":"2 45675  53.0550 121.0115 0002824  47.6853 312.4375 15.06398796111391","RA_OF_ASC_NODE":"121.0115","OBJECT_ID":"2020-035U","PERIAPSIS":"545.262","SEMIMAJOR_AXIS":"6925.352","MEAN_MOTION_DOT":"0.00001385","MEAN_MOTION":"15.06398796","REV_AT_EPOCH":"11139","FILE":"3479192","TLE_LINE1":"1 45675U 20035U   22154.29301574  .00001385  00000-0  11192-3 0  9996","MEAN_ELEMENT_THEORY":"SGP4","COUNTRY_CODE":"US","INCLINATION":"53.0550","MEAN_ANOMALY":"312.4375","PERIOD":"95.592","ELEMENT_SET_NO":"999","BSTAR":"0.00011192000000","DECAY_DATE":null,"SITE":"AFETR","APOAPSIS":"549.173","ECCENTRICITY":"0.00028240","EPHEMERIS_TYPE":"0","OBJECT_NAME":"STARLINK-1458","TIME_SYSTEM":"UTC","EPOCH":"2022-06-03T07:01:56.559936","ARG_OF_PERICENTER":"47.6853","GP_ID":"205260585","OBJECT_TYPE":"PAYLOAD","CLASSIFICATION_TYPE":"U","CENTER_NAME":"EARTH"},{"MEAN_ANOMALY":"303.1329","INCLINATION":"53.0557","COUNTRY_CODE":"US","ELEMENT_SET_NO":"999","PERIOD":"95.593","REV_AT_EPOCH":"11138","MEAN_ELEMENT_THEORY":"SGP4","TLE_LINE1":"1 45676U 20035V   22154.26352850  .00000085  00000-0  24603-4 0  9995","FILE":"3479192","CENTER_NAME":"EARTH","CLASSIFICATION_TYPE":"U","GP_ID":"205261335","OBJECT_TYPE":"PAYLOAD","OBJECT_NAME":"STARLINK-1460","EPHEMERIS_TYPE":"0","ECCENTRICITY":"0.00022960","DECAY_DATE":null,"SITE":"AFETR","BSTAR":"0.00002460300000","APOAPSIS":"548.830","ARG_OF_PERICENTER":"56.9880","EPOCH":"2022-06-03T06:19:28.862400","TIME_SYSTEM":"UTC","RCS_SIZE":"LARGE","LAUNCH_DATE":"2020-06-04","REF_FRAME":"TEME","NORAD_CAT_ID":"45676","SEMIMAJOR_AXIS":"6925.375","MEAN_MOTION_DOT":"0.00000085","MEAN_MOTION":"15.06391258","RA_OF_ASC_NODE":"121.1565","MEAN_MOTION_DDOT":"0.0000000000000","TLE_LINE2":"2 45676  53.0557 121.1565 0002296  56.9880 303.1329 15.06391258111386","PERIAPSIS":"545.650","OBJECT_ID":"2020-035V"},{"RCS_SIZE":"LARGE","LAUNCH_DATE":"2020-06-04","REF_FRAME":"TEME","NORAD_CAT_ID":"45677","SEMIMAJOR_AXIS":"6925.341","MEAN_MOTION":"15.06402470","MEAN_MOTION_DOT":"0.00000629","RA_OF_ASC_NODE":"120.7927","TLE_LINE2":"2 45677  53.0531 120.7927 0002373  57.8917 302.2302 15.06402470111439","MEAN_MOTION_DDOT":"0.0000000000000","PERIAPSIS":"545.563","OBJECT_ID":"2020-035W","MEAN_ANOMALY":"302.2302","INCLINATION":"53.0531","COUNTRY_CODE":"US","ELEMENT_SET_NO":"999","PERIOD":"95.592","REV_AT_EPOCH":"11143","MEAN_ELEMENT_THEORY":"SGP4","TLE_LINE1":"1 45677U 20035W   22154.34092242  .00000629  00000-0  61131-4 0  9992","FILE":"3479192","CENTER_NAME":"EARTH","CLASSIFICATION_TYPE":"U","GP_ID":"205262079","OBJECT_TYPE":"PAYLOAD","OBJECT_NAME":"STARLINK-1392","EPHEMERIS_TYPE":"0","ECCENTRICITY":"0.00023730","SITE":"AFETR","DECAY_DATE":null,"APOAPSIS":"548.849","BSTAR":"0.00006113100000","EPOCH":"2022-06-03T08:10:55.697088","ARG_OF_PERICENTER":"57.8917","TIME_SYSTEM":"UTC"},{"TIME_SYSTEM":"UTC","ARG_OF_PERICENTER":"55.1445","EPOCH":"2022-06-03T20:45:57.650112","SITE":"AFETR","DECAY_DATE":null,"APOAPSIS":"548.663","BSTAR":"0.00008226600000","EPHEMERIS_TYPE":"0","ECCENTRICITY":"0.00021000","OBJECT_NAME":"STARLINK-1393","GP_ID":"205295890","OBJECT_TYPE":"PAYLOAD","CLASSIFICATION_TYPE":"U","CENTER_NAME":"EARTH","FILE":"3479630","TLE_LINE1":"1 45678U 20035X   22154.86525058  .00000944  00000-0  82266-4 0  9998","MEAN_ELEMENT_THEORY":"SGP4","REV_AT_EPOCH":"11163","PERIOD":"95.592","ELEMENT_SET_NO":"999","COUNTRY_CODE":"US","INCLINATION":"53.0562","MEAN_ANOMALY":"304.9741","OBJECT_ID":"2020-035X","PERIAPSIS":"545.754","TLE_LINE2":"2 45678  53.0562 108.4308 0002100  55.1445 304.9741 15.06401559111630","MEAN_MOTION_DDOT":"0.0000000000000","RA_OF_ASC_NODE":"108.4308","MEAN_MOTION":"15.06401559","SEMIMAJOR_AXIS":"6925.344","MEAN_MOTION_DOT":"0.00000944","NORAD_CAT_ID":"45678","REF_FRAME":"TEME","LAUNCH_DATE":"2020-06-04","RCS_SIZE":"LARGE"},{"ECCENTRICITY":"0.00019300","EPHEMERIS_TYPE":"0","OBJECT_NAME":"STARLINK-1394","APOAPSIS":"548.542","DECAY_DATE":null,"SITE":"AFETR","BSTAR":"0.00015800000000","ARG_OF_PERICENTER":"66.1935","EPOCH":"2022-06-03T06:31:24.953376","TIME_SYSTEM":"UTC","CENTER_NAME":"EARTH","OBJECT_TYPE":"PAYLOAD","GP_ID":"205261086","CLASSIFICATION_TYPE":"U","REV_AT_EPOCH":"11156","MEAN_ELEMENT_THEORY":"SGP4","TLE_LINE1":"1 45679U 20035Y   22154.27181659  .00002073  00000-0  15800-3 0  9993","FILE":"3479192","INCLINATION":"53.0554","MEAN_ANOMALY":"293.9256","COUNTRY_CODE":"US","PERIOD":"95.592","ELEMENT_SET_NO":"999","RA_OF_ASC_NODE":"111.1217","TLE_LINE2":"2 45679  53.0554 111.1217 0001930  66.1935 293.9256 15.06402604111560","MEAN_MOTION_DDOT":"0.0000000000000","PERIAPSIS":"545.869","OBJECT_ID":"2020-035Y","SEMIMAJOR_AXIS":"6925.341","MEAN_MOTION_DOT":"0.00002073","MEAN_MOTION":"15.06402604","NORAD_CAT_ID":"45679","RCS_SIZE":"LARGE","LAUNCH_DATE":"2020-06-04","REF_FRAME":"TEME"},{"OBJECT_ID":"2020-035Z","PERIAPSIS":"545.745","TLE_LINE2":"2 45680  53.0553 108.4046 0002121  58.7797 301.3400 15.06399880111641","MEAN_MOTION_DDOT":"0.0000000000000","RA_OF_ASC_NODE":"108.4046","MEAN_MOTION_DOT":"0.00000347","SEMIMAJOR_AXIS":"6925.349","MEAN_MOTION":"15.06399880","NORAD_CAT_ID":"45680","REF_FRAME":"TEME","LAUNCH_DATE":"2020-06-04","RCS_SIZE":"LARGE","TIME_SYSTEM":"UTC","ARG_OF_PERICENTER":"58.7797","EPOCH":"2022-06-03T21:01:53.411232","DECAY_DATE":null,"APOAPSIS":"548.683","SITE":"AFETR","BSTAR":"0.00004219300000","ECCENTRICITY":"0.00021210","EPHEMERIS_TYPE":"0","OBJECT_NAME":"STARLINK-1395","OBJECT_TYPE":"PAYLOAD","GP_ID":"205294889","CLASSIFICATION_TYPE":"U","CENTER_NAME":"EARTH","FILE":"3479630","TLE_LINE1":"1 45680U 20035Z   22154.87631263  .00000347  00000-0  42193-4 0  9990","MEAN_ELEMENT_THEORY":"SGP4","REV_AT_EPOCH":"11164","PERIOD":"95.592","ELEMENT_SET_NO":"999","COUNTRY_CODE":"US","INCLINATION":"53.0553","MEAN_ANOMALY":"301.3400"},{"MEAN_ELEMENT_THEORY":"SGP4","FILE":"3479630","TLE_LINE1":"1 45681U 20035AA  22154.87263797  .00002343  00000-0  17619-3 0  9996","REV_AT_EPOCH":"11165","PERIOD":"95.593","ELEMENT_SET_NO":"999","INCLINATION":"53.0562","MEAN_ANOMALY":"299.7802","COUNTRY_CODE":"US","ARG_OF_PERICENTER":"60.3376","EPOCH":"2022-06-03T20:56:35.920608","TIME_SYSTEM":"UTC","ECCENTRICITY":"0.00019040","EPHEMERIS_TYPE":"0","OBJECT_NAME":"STARLINK-1396","DECAY_DATE":null,"SITE":"AFETR","APOAPSIS":"548.566","BSTAR":"0.00017619000000","CENTER_NAME":"EARTH","GP_ID":"205295139","OBJECT_TYPE":"PAYLOAD","CLASSIFICATION_TYPE":"U","NORAD_CAT_ID":"45681","REF_FRAME":"TEME","RCS_SIZE":"LARGE","LAUNCH_DATE":"2020-06-04","PERIAPSIS":"545.929","OBJECT_ID":"2020-035AA","RA_OF_ASC_NODE":"108.4146","MEAN_MOTION_DDOT":"0.0000000000000","TLE_LINE2":"2 45681  53.0562 108.4146 0001904  60.3376 299.7802 15.06388953111659","SEMIMAJOR_AXIS":"6925.382","MEAN_MOTION":"15.06388953","MEAN_MOTION_DOT":"0.00002343"},{"OBJECT_ID":"2020-035AB","PERIAPSIS":"545.659","TLE_LINE2":"2 45682  53.0564 111.0451 0002272  55.4348 304.6855 15.06393715111559","MEAN_MOTION_DDOT":"0.0000000000000","RA_OF_ASC_NODE":"111.0451","MEAN_MOTION_DOT":"0.00000068","SEMIMAJOR_AXIS":"6925.368","MEAN_MOTION":"15.06393715","NORAD_CAT_ID":"45682","REF_FRAME":"TEME","LAUNCH_DATE":"2020-06-04","RCS_SIZE":"LARGE","TIME_SYSTEM":"UTC","EPOCH":"2022-06-03T06:47:21.045408","ARG_OF_PERICENTER":"55.4348","SITE":"AFETR","DECAY_DATE":null,"BSTAR":"0.00002346700000","APOAPSIS":"548.806","OBJECT_NAME":"STARLINK-1397","ECCENTRICITY":"0.00022720","EPHEMERIS_TYPE":"0","CLASSIFICATION_TYPE":"U","OBJECT_TYPE":"PAYLOAD","GP_ID":"205260336","CENTER_NAME":"EARTH","FILE":"3479192","TLE_LINE1":"1 45682U 20035AB  22154.28288247  .00000068  00000-0  23467-4 0  9990","MEAN_ELEMENT_THEORY":"SGP4","REV_AT_EPOCH":"11155","ELEMENT_SET_NO":"999","PERIOD":"95.593","COUNTRY_CODE":"US","MEAN_ANOMALY":"304.6855","INCLINATION":"53.0564"}];
